NORAD_CAT_ID,OBJECT_NAME,OBJECT_TYPE,EPOCH,MEAN_MOTION,ECCENTRICITY,INCLINATION,RA_OF_ASC_NODE,ARG_OF_PERICENTER,MEAN_ANOMALY,BSTAR,MEAN_MOTION_DOT,MEAN_MOTION_DDOT,TLE_LINE0,TLE_LINE1,TLE_LINE2,SEMIMAJOR_AXIS,PERIOD,APOGEE,PERIGEE,DECAYED
55295.0,STARLINK-5293,PAYLOAD,2024-03-15 22:50:20,14.9833432,0.0002927,69.9994,69.3896,265.6637,94.4187,1.3507e-05,6.8e-07,0.0,0 STARLINK-5293,1 55295U 23010AC  24075.95162857  .00000068  00000-0  13507-4 0  9997,2 55295  69.9994  69.3896 0002927 265.6637  94.4187 14.98334320 64370,6950.18,96.107,574.079,570.01,0.0
55295.0,STARLINK-5293,PAYLOAD,2024-03-16 08:27:08,14.98333549,0.0002821,69.9994,68.3801,268.9541,91.1294,5.8763e-05,6.08e-06,0.0,0 STARLINK-5293,1 55295U 23010AC  24076.35218747  .00000608  00000-0  58763-4 0  9995,2 55295  69.9994  68.3801 0002821 268.9541  91.1294 14.98333549 64430,6950.182,96.107,574.008,570.086,0.0
55295.0,STARLINK-5293,PAYLOAD,2024-03-17 05:16:53,14.98329303,0.0002574,70.0005,66.193,254.2439,105.8436,5.4546e-05,5.58e-06,0.0,0 STARLINK-5293,1 55295U 23010AC  24077.22006919  .00000558  00000-0  54546-4 0  9997,2 55295  70.0005  66.1930 0002574 254.2439 105.8436 14.98329303 64258,6950.195,96.107,573.849,570.271,0.0
55295.0,STARLINK-5293,PAYLOAD,2024-03-17 08:29:10,14.98328154,0.00027,70.0001,65.8559,260.3131,99.7723,2.444e-05,1.99e-06,0.0,0 STARLINK-5293,1 55295U 23010AC  24077.35359106  .00000199  00000-0  24440-4 0  9991,2 55295  70.0001  65.8559 0002700 260.3131  99.7723 14.98328154 64584,6950.199,96.107,573.94,570.187,0.0
55295.0,STARLINK-5293,PAYLOAD,2024-03-17 22:54:22,14.98331525,0.0002687,70.0002,64.341,262.322,97.7634,1.1056e-05,3.9e-07,0.0,0 STARLINK-5293,1 55295U 23010AC  24077.95442906  .00000039  00000-0  11056-4 0  9990,2 55295  70.0002  64.3410 0002687 262.3220  97.7634 14.98331525 64675,6950.188,96.107,573.921,570.186,0.0
55295.0,STARLINK-5293,PAYLOAD,2024-03-18 05:18:54,14.98331227,0.0002711,70.0002,63.6678,258.382,101.7035,7.3767e-06,-5e-08,0.0,0 STARLINK-5293,1 55295U 23010AC  24078.22146874 -.00000005  00000-0  73767-5 0  9998,2 55295  70.0002  63.6678 0002711 258.3820 101.7035 14.98331227 64403,6950.189,96.107,573.938,570.17,0.0
55295.0,STARLINK-5293,PAYLOAD,2024-03-18 08:31:11,14.98331247,0.0002715,70.0003,63.3312,259.1574,100.928,6.8456e-06,-1.1e-07,0.0,0 STARLINK-5293,1 55295U 23010AC  24078.35498868 -.00000011  00000-0  68456-5 0  9991,2 55295  70.0003  63.3312 0002715 259.1574 100.9280 14.98331247 64736,6950.189,96.107,573.941,570.167,0.0
55295.0,STARLINK-5293,PAYLOAD,2024-03-19 08:33:11,14.98333465,0.000272,70.0005,60.8065,256.6506,103.435,7.9793e-05,8.59e-06,0.0,0 STARLINK-5293,1 55295U 23010AC  24079.35638480  .00000859  00000-0  79793-4 0  9992,2 55295  70.0005  60.8065 0002720 256.6506 103.4350 14.98333465 64884,6950.182,96.107,573.938,570.157,0.0
55295.0,STARLINK-5293,PAYLOAD,2024-03-19 21:22:15,14.98345539,0.0002948,69.9998,59.458,265.295,94.7872,0.00016308,1.854e-05,0.0,0 STARLINK-5293,1 55295U 23010AC  24079.89045228  .00001854  00000-0  16308-3 0  9991,2 55295  69.9998  59.4580 0002948 265.2950  94.7872 14.98345539 64650,6950.145,96.106,574.059,569.961,0.0
55295.0,STARLINK-5293,PAYLOAD,2024-03-20 08:35:10,14.98356321,0.0002812,70.0004,58.2814,260.3725,99.7116,0.00028035,3.256e-05,0.0,0 STARLINK-5293,1 55295U 23010AC  24080.35775818  .00003256  00000-0  28035-3 0  9997,2 55295  70.0004  58.2814 0002812 260.3725  99.7116 14.98356321 64729,6950.111,96.105,573.931,570.022,0.0
55295.0,STARLINK-5293,PAYLOAD,2024-03-20 23:00:25,14.98323293,0.0002963,70.0002,56.7664,266.6753,93.4067,-0.00011038,-1.41e-05,0.0,0 STARLINK-5293,1 55295U 23010AC  24080.95862862 -.00001410  00000-0 -11038-3 0  9996,2 55295  70.0002  56.7664 0002963 266.6753  93.4067 14.98323293 65123,6950.214,96.107,574.138,570.019,0.0
55295.0,STARLINK-5293,PAYLOAD,2024-03-21 05:24:58,14.9831733,0.0003082,69.9998,56.0925,270.9405,89.1401,-0.00016385,-2.047e-05,0.0,0 STARLINK-5293,1 55295U 23010AC  24081.22567580 -.00002047  00000-0 -16385-3 0  9993,2 55295  69.9998  56.0925 0003082 270.9405  89.1401 14.98317330 64850,6950.232,96.108,574.239,569.955,0.0
55295.0,STARLINK-5293,PAYLOAD,2024-03-21 08:37:14,14.98320114,0.0002952,69.9999,55.7554,270.9491,89.133,-0.00011715,-1.49e-05,0.0,0 STARLINK-5293,1 55295U 23010AC  24081.35919445 -.00001490  00000-0 -11715-3 0  9991,2 55295  69.9999  55.7554 0002952 270.9491  89.1330 14.98320114 65187,6950.223,96.108,574.14,570.037,0.0
55295.0,STARLINK-5293,PAYLOAD,2024-03-21 21:26:18,14.9832707,0.0003061,70.0008,54.4084,273.0916,86.9893,-0.00026721,-3.28e-05,0.0,0 STARLINK-5293,1 55295U 23010AC  24081.89326506 -.00003280  00000-0 -26721-3 0  9992,2 55295  70.0008  54.4084 0003061 273.0916  86.9893 14.98327070 64954,6950.202,96.107,574.194,569.939,0.0
55295.0,STARLINK-5293,PAYLOAD,2024-03-21 23:02:26,14.98330235,0.0003162,70.0006,54.2395,276.9693,83.1106,-0.00019016,-2.361e-05,0.0,0 STARLINK-5293,1 55295U 23010AC  24081.96002342 -.00002361  00000-0 -19016-3 0  9997,2 55295  70.0006  54.2395 0003162 276.9693  83.1106 14.98330235 65270,6950.192,96.107,574.255,569.86,0.0
55295.0,STARLINK-5293,PAYLOAD,2024-03-22 08:39:14,14.98344037,0.0002768,70.0016,53.231,272.5752,87.509,0.0015698,0.00018694,0.0,0 STARLINK-5293,1 55295U 23010AC  24082.36058704  .00018694  00000-0  15698-2 0  9990,2 55295  70.0016  53.2310 0002768 272.5752  87.5090 14.98344037 65024,6950.149,96.106,573.938,570.091,0.0
55295.0,STARLINK-5293,PAYLOAD,2024-03-23 05:28:59,14.98330368,0.0002529,70.0027,51.042,248.757,111.3319,0.00015163,1.717e-05,0.0,0 STARLINK-5293,1 55295U 23010AC  24083.22846876  .00001717  00000-0  15163-3 0  9997,2 55295  70.0027  51.0420 0002529 248.7570 111.3319 14.98330368 65158,6950.192,96.107,573.814,570.299,0.0
55295.0,STARLINK-5293,PAYLOAD,2024-03-23 08:41:16,14.98326679,0.0002449,70.0029,50.7067,250.7956,109.2938,0.00025091,2.902e-05,0.0,0 STARLINK-5293,1 55295U 23010AC  24083.36199119  .00002902  00000-0  25091-3 0  9991,2 55295  70.0029  50.7067 0002449 250.7956 109.2938 14.98326679 65484,6950.203,96.107,573.77,570.366,0.0
55295.0,STARLINK-5293,PAYLOAD,2024-03-24 05:30:59,14.98347488,0.0002399,70.0033,48.5195,245.4609,114.63,0.00044493,5.222e-05,0.0,0 STARLINK-5293,1 55295U 23010AC  24084.22986016  .00005222  00000-0  44493-3 0  9992,2 55295  70.0033  48.5195 0002399 245.4609 114.6300 14.98347488 65301,6950.139,96.106,573.671,570.336,0.0
55295.0,STARLINK-5293,PAYLOAD,2024-03-24 07:07:07,14.98349742,0.0002392,70.0035,48.3514,244.1109,115.9804,0.00049498,5.821e-05,0.0,0 STARLINK-5293,1 55295U 23010AC  24084.29661886  .00005821  00000-0  49498-3 0  9999,2 55295  70.0035  48.3514 0002392 244.1109 115.9804 14.98349742 65623,6950.132,96.106,573.659,570.334,0.0
55295.0,STARLINK-5293,PAYLOAD,2024-03-24 21:32:20,14.98348632,0.0002308,70.0032,46.8361,270.5859,89.5036,0.00058998,6.957e-05,0.0,0 STARLINK-5293,1 55295U 23010AC  24084.89746263  .00006957  00000-0  58998-3 0  9994,2 55295  70.0032  46.8361 0002308 270.5859  89.5036 14.98348632 65401,6950.135,96.106,573.604,570.396,0.0
55295.0,STARLINK-5293,PAYLOAD,2024-03-24 23:08:29,14.98341417,0.0002656,70.0044,46.6697,268.3692,91.7163,0.00050177,5.901e-05,0.0,0 STARLINK-5293,1 55295U 23010AC  24084.96422568  .00005901  00000-0  50177-3 0  9990,2 55295  70.0044  46.6697 0002656 268.3692  91.7163 14.98341417 65725,6950.158,96.106,573.869,570.177,0.0
55295.0,STARLINK-5293,PAYLOAD,2024-03-25 05:33:01,14.9833108,0.000287,70.0024,45.9933,274.2271,85.856,1.5359e-05,9e-07,0.0,0 STARLINK-5293,1 55295U 23010AC  24085.23126566  .00000090  00000-0  15359-4 0  9998,2 55295  70.0024  45.9933 0002870 274.2271  85.8560 14.98331080 65455,6950.19,96.107,574.049,570.06,0.0
55295.0,STARLINK-5293,PAYLOAD,2024-03-25 21:34:22,14.98319847,0.0002473,70.0037,44.3101,270.9223,89.1652,-9.7297e-05,-1.253e-05,0.0,0 STARLINK-5293,1 55295U 23010AC  24085.89887377 -.00001253  00000-0 -97297-4 0  9999,2 55295  70.0037  44.3101 0002473 270.9223  89.1652 14.98319847 65555,6950.224,96.108,573.808,570.37,0.0
55295.0,STARLINK-5293,PAYLOAD,2024-03-26 07:11:11,14.98331749,0.0002606,70.0015,43.3004,268.3218,91.7643,-7.9973e-05,-1.047e-05,0.0,0 STARLINK-5293,1 55295U 23010AC  24086.29943426 -.00001047  00000-0 -79973-4 0  9994,2 55295  70.0015  43.3004 0002606 268.3218  91.7643 14.98331749 65920,6950.187,96.107,573.864,570.241,0.0
55295.0,STARLINK-5293,PAYLOAD,2024-03-26 21:36:22,14.98345545,0.0002654,70.0011,41.7838,251.146,108.9411,0.00051636,6.076e-05,0.0,0 STARLINK-5293,1 55295U 23010AC  24086.90025524  .00006076  00000-0  51636-3 0  9992,2 55295  70.0011  41.7838 0002654 251.1460 108.9411 14.98345545 65704,6950.145,96.106,573.854,570.165,0.0
55295.0,STARLINK-5293,PAYLOAD,2024-03-26 23:12:31,14.98328421,0.0002859,70.0007,41.6162,272.1185,87.9646,0.00023506,2.713e-05,0.0,0 STARLINK-5293,1 55295U 23010AC  24086.96703249  .00002713  00000-0  23506-3 0  9994,2 55295  70.0007  41.6162 0002859 272.1185  87.9646 14.98328421 66028,6950.198,96.107,574.05,570.076,0.0
55295.0,STARLINK-5293,PAYLOAD,2024-03-27 04:00:55,14.98335577,0.0002693,70.0028,41.1122,269.0982,90.9868,0.00042596,4.994e-05,0.0,0 STARLINK-5293,1 55295U 23010AC  24087.16731214  .00004994  00000-0  42596-3 0  9993,2 55295  70.0028  41.1122 0002693 269.0982  90.9868 14.98335577 65746,6950.176,96.107,573.912,570.169,0.0
55295.0,STARLINK-5293,PAYLOAD,2024-03-27 13:37:43,14.9833575,0.0002359,70.0042,40.1013,275.0943,84.9947,0.00029386,3.416e-05,0.0,0 STARLINK-5293,1 55295U 23010AC  24087.56787023  .00003416  00000-0  29386-3 0  9996,2 55295  70.0042  40.1013 0002359 275.0943  84.9947 14.98335750 66119,6950.175,96.107,573.68,570.401,0.0
55295.0,STARLINK-5293,PAYLOAD,2024-03-27 21:38:24,14.98335675,0.0002519,70.0039,39.2601,269.8271,90.26,0.00036702,4.29e-05,0.0,0 STARLINK-5293,1 55295U 23010AC  24087.90167105  .00004290  00000-0  36702-3 0  9998,2 55295  70.0039  39.2601 0002519 269.8271  90.2600 14.98335675 66167,6950.175,96.107,573.791,570.29,0.0
